#dP2023 12 15 18  0  0.00000000      96 __u+U IGS20 EXT  IAC
## 2292 496800.00000000   900.00000000 60293 0.7500000000000
+  118   C06C07C08C09C10C11C12C13C14C16C19C20C21C22C23C24C25
+        C26C27C28C29C30C32C33C34C35C36C37C38C39C40C41C42C43
+        C44C45C46E02E03E04E05E07E08E09E10E11E12E13E15E18E19
+        E21E24E25E26E27E30E31E33E34E36G01G02G03G04G05G06G07
+        G08G09G10G11G12G13G14G15G16G17G18G19G20G21G22G23G24
+        G25G27G28G29G30G31G32J02J03J04R01R02R03R04R05R07R08
+        R09R11R12R13R14R15R16R17R18R19R20R21R22R24R25R26  0
++         8 12 10  9 10  8 10  9  8 10  6  8  9  7  8  8  8
++         8  8  7  9  7  9  8  9  8  7  8 10 10  9  8  9  9
++        10  9  7  8  6  7  7  7  7  9  8  7  7  9  8  9  8
++         7  7  8  7  7  7  8  7  5  7  8  6 15  6  6  7  7
++         8  6  9  7  7  7  7  6  6  6  5  7  8  7  7  9  7
++         7  7  8  7  8  7  8 10  8  7  7  8  7  9  8  9  9
++         7  7  8  8  7  9  9  6  8  7 10  8  8  8 13 10  0
%c M  cc GPS ccc cccc cccc cccc cccc ccccc ccccc ccccc ccccc
%c cc cc ccc ccc cccc cccc cccc cccc ccccc ccccc ccccc ccccc
%f  0.0000000  0.000000000  0.00000000000  0.000000000000000
%f  0.0000000  0.000000000  0.00000000000  0.000000000000000
%i    0    0    0    0      0      0      0      0         0
%i    0    0    0    0      0      0      0      0         0
/* IAC                                ULTRA-RAPID PREDICTION
/* S/V CLOCKS ARE ALIGNED TO GNSS TIME                      
/* G:C1WC2W R:C1PC2P E:C1XC5X C:C2IC6I J:C1CC2S             
/* PCV:IGS20_2290 OL/AL:FES2004  NONE     YN ORB:CoN CLK:CoN
*  2023 12 16  2  0  0.00000000
PC06  -1702.420679  32694.323911  26753.760832    210.413703
PC07 -13834.206757  27815.256559 -28502.717033   -481.384332
PC08 -14202.953202  39122.757882   6038.384257    177.854026
PC09   6696.884490  37680.019742  18774.935045   -223.108477
PC10  -5548.538328  28057.235392 -30736.685456    -55.077025
PC11  10231.195760  21560.405041 -14376.761416    308.523719
PC12  -8030.497473  13354.468271 -23102.627989    824.697553
PC13  -9257.908295  39451.059026  11281.331314    396.178022
PC14   1174.969561  16127.732787  22759.712999   -239.421579
PC16  -2923.075778  31468.146191  28317.290138   -228.480789
PC19 -11629.275872 -11788.004016 -22443.890317   -951.722824
PC20   7564.582164 -17584.423479 -20290.743448     25.098008
PC21 -23957.744322  13195.933233   5591.639594   -967.393602
PC22 -25266.502170   1077.623192 -11823.179292   -185.040292
PC23  15592.054434   5465.580165 -22493.266928   -803.348495
PC24  -5886.155452  27175.304739   2146.701251    696.504298
PC25   7795.453812  22304.548489 -14845.449733    279.076583
PC26 -14617.334354  16532.338096  17037.887744   -220.808646
PC27  15756.098286  -6896.951638  21962.414885    242.807162
PC28  23592.614209   8161.445207  12479.348052    183.725854
PC29 -18400.037873 -19890.126479   6673.098397    215.098337
PC30   -980.457187 -18863.433204  20531.639867    -10.497347
PC32  23905.576412 -13315.556258  -5451.710648   -543.146332
PC33  11580.129584  11821.543571  22468.838661   -941.849523
PC34   2503.289299  19495.393207 -19824.701504    325.827119
PC35 -23886.523849  -7191.181563 -12478.730507    479.753193
PC36  -6765.023928 -23034.920406  14252.091619    -91.382531
PC37  15178.000453 -15656.648685 -17428.243536   -926.287165
PC38 -17543.647708  38182.521140  -2139.599298    124.314228
PC39  -5719.909783  28090.833151  31029.721427     -6.129409
PC40 -20138.851332  21473.624391 -30269.814760    -48.026338
PC41  24953.512703   -538.340166  12527.976762   -873.742209
PC42  -9195.104884  17765.246360  19506.035806   -480.392806
PC43  17746.127979  20209.859152  -7489.578122     52.472551
PC44 -15684.375682   7490.567860 -21834.904712    324.109642
PC45 -15566.538517  -4965.524140  22613.891623    -55.271614
PC46   5283.580091 -27402.179082  -1162.521280   -107.844177
PE02  -3078.591835 -19295.828972  22234.521933     86.967066
PE03 -14647.515680 -16964.381511 -19345.874722    -80.396013
PE04  28219.111426   8335.075210   3249.557497   -281.054732
PE05   7296.693706 -15654.277898 -24041.684121   4700.894607
PE07 -25400.204741   4892.929156  14392.471152    -93.259511
PE08 -28042.816302  -8668.179686  -3852.568675   -192.840920
PE09  25446.648677  -4747.178342 -14353.831340   -264.455043
PE10  17215.632368   3370.889532  23841.071872   -586.676145
PE11  13948.478634  -8656.643997  24627.197926   3266.519294
PE12  17639.251603  13619.774196  19493.031517   -820.647401
PE13 -14169.930577   7872.592899 -24756.513503    -19.696601
PE15 -17540.417993 -14135.189623 -19187.027158    -74.929691
PE18   3933.089654  19332.979915 -20736.473016     99.422245
PE19  12151.505297  17307.161944  20716.524948  -1007.039183
PE21 -13594.430127  24556.302599  -9389.393381   -569.066754
PE24  23332.893147 -15303.080246  -9938.274661   -488.191216
PE25  13897.701776 -24530.265823   9038.223946     -1.913996
PE26  -2209.897483  25315.720420 -15164.384164    310.886791
PE27 -23178.765069  15740.697835   9520.493947   -225.190402
PE30 -18838.514955  -2639.062367  22660.688549   -745.305245
PE31  18999.137210   2229.222608 -22588.042684    -11.806311
PE33  10262.065711  27695.055018   1908.319725      4.265899
PE34 -10639.667055 -27517.412227  -2469.739275    -83.590005
PE36   2584.538269 -24914.546010  15777.582696   -158.278926
PG01  14895.121383    105.929811  21682.455091    164.040648
PG02  17353.357864   6237.746633  19702.525231   -514.960026
PG03  20387.800166  -7684.674932  14966.607383     57.678331
PG04  25277.994838    281.434343  -8354.483301    240.596536
PG05 -15514.470587  -4165.794409 -21345.690758   -154.280874
PG06  -6095.964933 -25650.202183   2805.474661    476.672599
PG07   8339.301418 -16648.712321 -18276.202054    -12.941593
PG08  26318.347091   4991.363153   -391.480440   -157.192360
PG09  18281.471796  -8910.204983 -17203.252861     28.093808
PG10  -7614.076025  21687.335077  13209.482586    -65.474050
PG11 -11968.423651 -22263.850802  -8215.994795   -502.423731
PG12 -20917.443808   5785.774375  14981.437067   -457.866137
PG13 -21334.265336 -13793.364217  -8321.379181    606.061364
PG14  11119.001909 -21947.482077   9795.125501    271.999169
PG15 -26547.150853  -2512.762882  -1211.985012    107.357343
PG16  10865.201845  10794.324340 -22027.249612   -403.356203
PG17   4541.306124 -14495.018695  22224.401044    721.921467
PG18  -7283.898184  18008.550473 -18013.641280   -507.342623
PG19  -6067.529007 -16329.860732  19960.939070    413.052773
PG20  -6789.682556 -16058.609387 -20031.249600    396.442622
PG21  17864.917874  10711.393301  17503.387230    141.414494
PG22   5563.741426 -20678.132794  16337.092596     65.324890
PG23 -16447.813025  20687.662909   1238.366266    116.865586
PG24 -17700.676994  -6487.848405  18460.775432   -394.212824
PG25 -19726.584966  16516.971090   5652.340011    481.637775
PG27  19774.856915  13036.973568 -12701.001163    -83.481148
PG28   5259.019039  25465.913484   5393.160347    -71.231930
PG29 -19517.963276   6319.466698 -16968.964737   -609.729105
PG30    967.349601 -23892.103982 -11153.515992   -456.967059
PG31   9969.089496  24136.807579  -3617.894784   -226.629518
PG32    624.815685  15592.191229  21699.498230   -596.685414
PJ02 -35665.887655  22575.030302   3593.215658     -0.585045
PJ03 -19136.824472  23953.887088 -24324.849500    -12.146499
PJ04 -27631.559247  31050.195201  13630.019567     74.302900
PR01  -3919.629553 -10346.359390 -22985.469232     72.223038
PR02 -20180.481650  -3591.995253 -15091.073591    -22.347286
PR03 -24865.015804   5339.788534   1488.782357     90.997256
PR04 -15874.516314  10740.535929  16846.208988    215.543712
PR05   1693.694969  10589.764058  23152.342711    123.854829
PR07  24803.854827  -5648.325847  -2225.239413     71.443189
PR08  15692.753222 -10939.884419 -16839.849452    -73.715536
PR09   8776.142029   8815.319683 -22265.853861    158.957820
PR11  10928.210471 -21946.682448  -7009.864580   -221.690264
PR12   1611.961886 -22415.859905  12102.564821     34.515896
PR13  -7361.388545 -11021.980766  21775.640106    -42.348940
PR14 -13274.066083   9528.152408  19599.020164     25.764825
PR15 -10668.737334  22482.589063   5620.630512     83.922298
PR16  -1748.562631  22540.106248 -11840.350928     21.586573
PR17 -14704.644238  -2788.185920 -20651.988682     43.864375
PR18  -3586.101354  11551.465109 -22442.949686    117.081012
PR19   7552.893874  19903.490393 -14041.986181   -258.449396
PR20  17307.525451  17608.889944   6503.895791   -105.210687
PR21  14322.476263   2380.945823  20972.569000    -61.317493
PR22   3517.609326 -12422.907909  22028.554428     98.463996
PR24 -18153.820057 -16520.541496  -6947.517073    -36.102047
PR25  16174.812214 -10926.471708 -16393.275113    -23.830003
PR26  14738.824751   3124.095912  20587.531020      1.568156
EOF
